{"type": "FeatureCollection", "features": [ {"type": "Feature", "properties": {"norad_id": 30515, "name": "FENGYUN 1C DEB", "group": "fengyun-1c-debris", "lat": -48.604866503490804, "lon": -129.55364174319078, "alt_km": 1257.2245020537512, "timestamp": "2025-12-10T04:57:29.895268+00:00", "meta": {"OBJECT_NAME": "FENGYUN 1C DEB", "OBJECT_ID": "1999-025AJD", "EPOCH": "2025-12-09T15:15:03.961728", "MEAN_MOTION": 13.6377499, "ECCENTRICITY": 0.049688, "INCLINATION": 98.5089, "RA_OF_ASC_NODE": 220.1661, "ARG_OF_PERICENTER": 82.8548, "MEAN_ANOMALY": 309.7987, "EPHEMERIS_TYPE": 0, "CLASSIFICATION_TYPE": "U", "NORAD_CAT_ID": 30515, "ELEMENT_SET_NO": 999, "REV_AT_EPOCH": 93288, "BSTAR": 0.0014161, "MEAN_MOTION_DOT": 2.575e-05, "MEAN_MOTION_DDOT": 0}, "tle": {"line1": "1 30515U 99025AJD 25343.63546252  .00002575  00000+0  14161-2 0  9992", "line2": "2 30515  98.5089 220.1661 0496880  82.8548 309.7987 13.63774990932885"}}, "geometry": {"type": "Point", "coordinates": [-129.55364174319078, -48.604866503490804]}}, {"type": "Feature", "properties": {"norad_id": 30516, "name": "FENGYUN 1C DEB", "group": "fengyun-1c-debris", "lat": 65.79500768126499, "lon": -71.57499059539613, "alt_km": 754.0850821231834, "timestamp": "2025-12-10T04:57:29.895278+00:00", "meta": {"OBJECT_NAME": "FENGYUN 1C DEB", "OBJECT_ID": "1999-025AJE", "EPOCH": "2025-12-09T07:04:17.366016", "MEAN_MOTION": 14.41262887, "ECCENTRICITY": 0.0008838, "INCLINATION": 98.8573, "RA_OF_ASC_NODE": 87.1833, "ARG_OF_PERICENTER": 301.8507, "MEAN_ANOMALY": 121.6922, "EPHEMERIS_TYPE": 0, "CLASSIFICATION_TYPE": "U", "NORAD_CAT_ID": 30516, "ELEMENT_SET_NO": 999, "REV_AT_EPOCH": 97665, "BSTAR": 0.0030396, "MEAN_MOTION_DOT": 9.793e-05, "MEAN_MOTION_DDOT": 0}, "tle": {"line1": "1 30516U 99025AJE 25343.29464544  .00009793  00000+0  30396-2 0  9995", "line2": "2 30516  98.8573  87.1833 0008838 301.8507 121.6922 14.41262887976657"}}, "geometry": {"type": "Point", "coordinates": [-71.57499059539613, 65.79500768126499]}}, {"type": "Feature", "properties": {"norad_id": 30520, "name": "FENGYUN 1C DEB", "group": "fengyun-1c-debris", "lat": -64.42364916546019, "lon": 175.34839364819047, "alt_km": 580.003806534165, "timestamp": "2025-12-10T04:57:29.895289+00:00", "meta": {"OBJECT_NAME": "FENGYUN 1C DEB", "OBJECT_ID": "1999-025AJJ", "EPOCH": "2025-12-09T16:33:41.018976", "MEAN_MOTION": 15.13864747, "ECCENTRICITY": 0.0070595, "INCLINATION": 98.7191, "RA_OF_ASC_NODE": 156.0551, "ARG_OF_PERICENTER": 110.1804, "MEAN_ANOMALY": 250.7035, "EPHEMERIS_TYPE": 0, "CLASSIFICATION_TYPE": "U", "NORAD_CAT_ID": 30520, "ELEMENT_SET_NO": 999, "REV_AT_EPOCH": 995, "BSTAR": 0.0015978, "MEAN_MOTION_DOT": 0.00030763, "MEAN_MOTION_DDOT": 0}, "tle": {"line1": "1 30520U 99025AJJ 25343.69005809  .00030763  00000+0  15978-2 0  9999", "line2": "2 30520  98.7191 156.0551 0070595 110.1804 250.7035 15.13864747  9952"}}, "geometry": {"type": "Point", "coordinates": [175.34839364819047, -64.42364916546019]}}, {"type": "Feature", "properties": {"norad_id": 30521, "name": "FENGYUN 1C DEB", "group": "fengyun-1c-debris", "lat": -65.14213477268389, "lon": -80.74125291303166, "alt_km": 610.4545485797198, "timestamp": "2025-12-10T04:57:29.895299+00:00", "meta": {"OBJECT_NAME": "FENGYUN 1C DEB", "OBJECT_ID": "1999-025AJK", "EPOCH": "2025-12-09T14:38:55.013280", "MEAN_MOTION": 14.58210672, "ECCENTRICITY": 0.013562, "INCLINATION": 98.9885, "RA_OF_ASC_NODE": 118.5919, "ARG_OF_PERICENTER": 253.2501, "MEAN_ANOMALY": 105.3777, "EPHEMERIS_TYPE": 0, "CLASSIFICATION_TYPE": "U", "NORAD_CAT_ID": 30521, "ELEMENT_SET_NO": 999, "REV_AT_EPOCH": 99536, "BSTAR": 0.001269, "MEAN_MOTION_DOT": 6.593e-05, "MEAN_MOTION_DDOT": 0}, "tle": {"line1": "1 30521U 99025AJK 25343.61035895  .00006593  00000+0  12690-2 0  9992", "line2": "2 30521  98.9885 118.5919 0135620 253.2501 105.3777 14.58210672995367"}}, "geometry": {"type": "Point", "coordinates": [-80.74125291303166, -65.14213477268389]}}, {"type": "Feature", "properties": {"norad_id": 30523, "name": "FENGYUN 1C DEB", "group": "fengyun-1c-debris", "lat": 68.79719485996588, "lon": -59.95803002601961, "alt_km": 666.864893771919, "timestamp": "2025-12-10T04:57:29.895310+00:00", "meta": {"OBJECT_NAME": "FENGYUN 1C DEB", "OBJECT_ID": "1999-025AJM", "EPOCH": "2025-12-09T10:43:51.141216", "MEAN_MOTION": 14.27924169, "ECCENTRICITY": 0.02440783, "INCLINATION": 98.4657, "RA_OF_ASC_NODE": 321.8818, "ARG_OF_PERICENTER": 118.1838, "MEAN_ANOMALY": 12.4342, "EPHEMERIS_TYPE": 0, "CLASSIFICATION_TYPE": "U", "NORAD_CAT_ID": 30523, "ELEMENT_SET_NO": 999, "REV_AT_EPOCH": 98053, "BSTAR": 0.00026849837, "MEAN_MOTION_DOT": 8.68e-06, "MEAN_MOTION_DDOT": 0}, "tle": {"line1": "1 30523U 99025AJM 25343.44711969  .00000868  00000+0  26850-3 0  9991", "line2": "2 30523  98.4657 321.8818 0244078 118.1838  12.4342 14.27924169980536"}}, "geometry": {"type": "Point", "coordinates": [-59.95803002601961, 68.79719485996588]}}, {"type": "Feature", "properties": {"norad_id": 30524, "name": "FENGYUN 1C DEB", "group": "fengyun-1c-debris", "lat": 0.788491937912372, "lon": 156.17148716090136, "alt_km": 957.4198838088305, "timestamp": "2025-12-10T04:57:29.895319+00:00", "meta": {"OBJECT_NAME": "FENGYUN 1C DEB", "OBJECT_ID": "1999-025AJN", "EPOCH": "2025-12-08T23:37:50.152800", "MEAN_MOTION": 13.921025, "ECCENTRICITY": 0.02079816, "INCLINATION": 99.3079, "RA_OF_ASC_NODE": 155.0734, "ARG_OF_PERICENTER": 260.3123, "MEAN_ANOMALY": 97.4489, "EPHEMERIS_TYPE": 0, "CLASSIFICATION_TYPE": "U", "NORAD_CAT_ID": 30524, "ELEMENT_SET_NO": 999, "REV_AT_EPOCH": 93833, "BSTAR": 0.007094335, "MEAN_MOTION_DOT": 0.00010796, "MEAN_MOTION_DDOT": 0}, "tle": {"line1": "1 30524U 99025AJN 25342.98460825  .00010796  00000+0  70943-2 0  9994", "line2": "2 30524  99.3079 155.0734 0207981 260.3123  97.4489 13.92102500938332"}}, "geometry": {"type": "Point", "coordinates": [156.17148716090136, 0.788491937912372]}}, {"type": "Feature", "properties": {"norad_id": 30525, "name": "FENGYUN 1C DEB", "group": "fengyun-1c-debris", "lat": -1.116677800855483, "lon": 49.4417562552256, "alt_km": 1194.911393854739, "timestamp": "2025-12-10T04:57:29.895330+00:00", "meta": {"OBJECT_NAME": "FENGYUN 1C DEB", "OBJECT_ID": "1999-025AJP", "EPOCH": "2025-12-09T15:40:29.860896", "MEAN_MOTION": 13.58593934, "ECCENTRICITY": 0.0293885, "INCLINATION": 98.6018, "RA_OF_ASC_NODE": 229.1247, "ARG_OF_PERICENTER": 317.5359, "MEAN_ANOMALY": 40.3379, "EPHEMERIS_TYPE": 0, "CLASSIFICATION_TYPE": "U", "NORAD_CAT_ID": 30525, "ELEMENT_SET_NO": 999, "REV_AT_EPOCH": 93075, "BSTAR": 0.0024979, "MEAN_MOTION_DOT": 2.379e-05, "MEAN_MOTION_DDOT": 0}, "tle": {"line1": "1 30525U 99025AJP 25343.65312339  .00002379  00000+0  24979-2 0  9992", "line2": "2 30525  98.6018 229.1247 0293885 317.5359  40.3379 13.58593934930754"}}, "geometry": {"type": "Point", "coordinates": [49.4417562552256, -1.116677800855483]}}, {"type": "Feature", "properties": {"norad_id": 30526, "name": "FENGYUN 1C DEB", "group": "fengyun-1c-debris", "lat": -67.21749762504191, "lon": -137.05066290158413, "alt_km": 867.3264022004751, "timestamp": "2025-12-10T04:57:29.895340+00:00", "meta": {"OBJECT_NAME": "FENGYUN 1C DEB", "OBJECT_ID": "1999-025AJQ", "EPOCH": "2025-12-09T04:34:45.464736", "MEAN_MOTION": 13.49895325, "ECCENTRICITY": 0.0305945, "INCLINATION": 99.5476, "RA_OF_ASC_NODE": 65.5968, "ARG_OF_PERICENTER": 273.6009, "MEAN_ANOMALY": 83.019, "EPHEMERIS_TYPE": 0, "CLASSIFICATION_TYPE": "U", "NORAD_CAT_ID": 30526, "ELEMENT_SET_NO": 999, "REV_AT_EPOCH": 92610, "BSTAR": 0.0018995751, "MEAN_MOTION_DOT": 1.568e-05, "MEAN_MOTION_DDOT": 0}, "tle": {"line1": "1 30526U 99025AJQ 25343.19080399  .00001568  00000+0  18996-2 0  9991", "line2": "2 30526  99.5476  65.5968 0305945 273.6009  83.0190 13.49895325926108"}}, "geometry": {"type": "Point", "coordinates": [-137.05066290158413, -67.21749762504191]}}, {"type": "Feature", "properties": {"norad_id": 30527, "name": "FENGYUN 1C DEB", "group": "fengyun-1c-debris", "lat": -23.398587532143573, "lon": 32.03726250031013, "alt_km": 1210.2858052197835, "timestamp": "2025-12-10T04:57:29.895351+00:00", "meta": {"OBJECT_NAME": "FENGYUN 1C DEB", "OBJECT_ID": "1999-025AJR", "EPOCH": "2025-12-08T14:12:40.305024", "MEAN_MOTION": 13.31018668, "ECCENTRICITY": 0.0413021, "INCLINATION": 100.0641, "RA_OF_ASC_NODE": 26.0481, "ARG_OF_PERICENTER": 236.3127, "MEAN_ANOMALY": 283.2307, "EPHEMERIS_TYPE": 0, "CLASSIFICATION_TYPE": "U", "NORAD_CAT_ID": 30527, "ELEMENT_SET_NO": 999, "REV_AT_EPOCH": 91301, "BSTAR": 0.0027092, "MEAN_MOTION_DOT": 2.018e-05, "MEAN_MOTION_DDOT": 0}, "tle": {"line1": "1 30527U 99025AJR 25342.59213316  .00002018  00000+0  27092-2 0  9990", "line2": "2 30527 100.0641  26.0481 0413021 236.3127 283.2307 13.31018668913013"}}, "geometry": {"type": "Point", "coordinates": [32.03726250031013, -23.398587532143573]}}, {"type": "Feature", "properties": {"norad_id": 30528, "name": "FENGYUN 1C DEB", "group": "fengyun-1c-debris", "lat": -62.17350905464133, "lon": -130.067473233177, "alt_km": 807.0489133495439, "timestamp": "2025-12-10T04:57:29.895361+00:00", "meta": {"OBJECT_NAME": "FENGYUN 1C DEB", "OBJECT_ID": "1999-025AJS", "EPOCH": "2025-12-08T14:26:57.623712", "MEAN_MOTION": 14.13485717, "ECCENTRICITY": 0.0143279, "INCLINATION": 98.2382, "RA_OF_ASC_NODE": 212.5233, "ARG_OF_PERICENTER": 237.9765, "MEAN_ANOMALY": 177.1341, "EPHEMERIS_TYPE": 0, "CLASSIFICATION_TYPE": "U", "NORAD_CAT_ID": 30528, "ELEMENT_SET_NO": 999, "REV_AT_EPOCH": 97079, "BSTAR": 0.00066775, "MEAN_MOTION_DOT": 1.346e-05, "MEAN_MOTION_DDOT": 0}, "tle": {"line1": "1 30528U 99025AJS 25342.60205583  .00001346  00000+0  66775-3 0  9995", "line2": "2 30528  98.2382 212.5233 0143279 237.9765 177.1341 14.13485717970792"}}, "geometry": {"type": "Point", "coordinates": [-130.067473233177, -62.17350905464133]}}]}